{
  "links" : {
    "next" : "https://api.nasa.gov/neo/rest/v1/feed?start_date=2010-08-09&end_date=2010-08-09&detailed=true&api_key=t0TVs3DtDT2H8Oy2Zy8m2eVrNsAVKAexjcZXUckd",
    "prev" : "https://api.nasa.gov/neo/rest/v1/feed?start_date=2010-08-07&end_date=2010-08-07&detailed=true&api_key=t0TVs3DtDT2H8Oy2Zy8m2eVrNsAVKAexjcZXUckd",
    "self" : "https://api.nasa.gov/neo/rest/v1/feed?start_date=2010-08-08&end_date=2010-08-08&detailed=true&api_key=t0TVs3DtDT2H8Oy2Zy8m2eVrNsAVKAexjcZXUckd"
  },
  "element_count" : 3,
  "near_earth_objects" : {
    "2010-08-08" : [ {
      "links" : {
        "self" : "https://api.nasa.gov/neo/rest/v1/neo/3544949?api_key=t0TVs3DtDT2H8Oy2Zy8m2eVrNsAVKAexjcZXUckd"
      },
      "neo_reference_id" : "3544949",
      "name" : "(2010 PS65)",
      "nasa_jpl_url" : "http://ssd.jpl.nasa.gov/sbdb.cgi?sstr=3544949",
      "absolute_magnitude_h" : 24.7,
      "estimated_diameter" : {
        "kilometers" : {
          "estimated_diameter_min" : 0.0305179233,
          "estimated_diameter_max" : 0.0682401509
        },
        "meters" : {
          "estimated_diameter_min" : 30.5179232594,
          "estimated_diameter_max" : 68.2401509401
        },
        "miles" : {
          "estimated_diameter_min" : 0.0189629525,
          "estimated_diameter_max" : 0.0424024508
        },
        "feet" : {
          "estimated_diameter_min" : 100.1244233463,
          "estimated_diameter_max" : 223.8850168104
        }
      },
      "is_potentially_hazardous_asteroid" : false,
      "close_approach_data" : [ {
        "close_approach_date" : "2010-08-08",
        "epoch_date_close_approach" : 1281250800000,
        "relative_velocity" : {
          "kilometers_per_second" : "7.641263261",
          "kilometers_per_hour" : "27508.5477394943",
          "miles_per_hour" : "17092.7417884652"
        },
        "miss_distance" : {
          "astronomical" : "0.0459397037",
          "lunar" : "17.8705444336",
          "kilometers" : "6872481.5",
          "miles" : "4270362"
        },
        "orbiting_body" : "Earth"
      } ],
      "orbital_data" : {
        "orbit_id" : "20",
        "orbit_determination_date" : "2017-04-06 08:56:59",
        "orbit_uncertainty" : "7",
        "minimum_orbit_intersection" : ".0422991",
        "jupiter_tisserand_invariant" : "2.962",
        "epoch_osculation" : "2458000.5",
        "eccentricity" : ".6322976401885937",
        "semi_major_axis" : "2.872885463447179",
        "inclination" : ".5362943611179828",
        "ascending_node_longitude" : "160.6350070422277",
        "orbital_period" : "1778.590198300152",
        "perihelion_distance" : "1.056366764377414",
        "perihelion_argument" : "153.0766569651751",
        "aphelion_distance" : "4.689404162516945",
        "perihelion_time" : "2457194.661311113488",
        "mean_anomaly" : "163.1077964313548",
        "mean_motion" : ".2024075024949884",
        "equinox" : "J2000"
      }
    }, {
      "links" : {
        "self" : "https://api.nasa.gov/neo/rest/v1/neo/3529624?api_key=t0TVs3DtDT2H8Oy2Zy8m2eVrNsAVKAexjcZXUckd"
      },
      "neo_reference_id" : "3529624",
      "name" : "(2010 LL68)",
      "nasa_jpl_url" : "http://ssd.jpl.nasa.gov/sbdb.cgi?sstr=3529624",
      "absolute_magnitude_h" : 22.9,
      "estimated_diameter" : {
        "kilometers" : {
          "estimated_diameter_min" : 0.0699125232,
          "estimated_diameter_max" : 0.1563291544
        },
        "meters" : {
          "estimated_diameter_min" : 69.9125232246,
          "estimated_diameter_max" : 156.3291544087
        },
        "miles" : {
          "estimated_diameter_min" : 0.0434416145,
          "estimated_diameter_max" : 0.097138403
        },
        "feet" : {
          "estimated_diameter_min" : 229.3718026961,
          "estimated_diameter_max" : 512.8909429502
        }
      },
      "is_potentially_hazardous_asteroid" : false,
      "close_approach_data" : [ {
        "close_approach_date" : "2010-08-08",
        "epoch_date_close_approach" : 1281250800000,
        "relative_velocity" : {
          "kilometers_per_second" : "8.2439041178",
          "kilometers_per_hour" : "29678.0548242041",
          "miles_per_hour" : "18440.7891211839"
        },
        "miss_distance" : {
          "astronomical" : "0.1660035416",
          "lunar" : "64.575378418",
          "kilometers" : "24833776",
          "miles" : "15430993"
        },
        "orbiting_body" : "Earth"
      } ],
      "orbital_data" : {
        "orbit_id" : "10",
        "orbit_determination_date" : "2017-04-06 08:57:18",
        "orbit_uncertainty" : "6",
        "minimum_orbit_intersection" : ".139184",
        "jupiter_tisserand_invariant" : "3.567",
        "epoch_osculation" : "2458000.5",
        "eccentricity" : ".5246220328920504",
        "semi_major_axis" : "2.072834567264354",
        "inclination" : "10.49177284578303",
        "ascending_node_longitude" : "192.3787150118576",
        "orbital_period" : "1090.047418116771",
        "perihelion_distance" : ".9853798827372152",
        "perihelion_argument" : "98.73952940912289",
        "aphelion_distance" : "3.160289251791494",
        "perihelion_time" : "2457573.804809728909",
        "mean_anomaly" : "140.920721378322",
        "mean_motion" : ".3302608620659428",
        "equinox" : "J2000"
      }
    }, {
      "links" : {
        "self" : "https://api.nasa.gov/neo/rest/v1/neo/3544935?api_key=t0TVs3DtDT2H8Oy2Zy8m2eVrNsAVKAexjcZXUckd"
      },
      "neo_reference_id" : "3544935",
      "name" : "(2010 PW58)",
      "nasa_jpl_url" : "http://ssd.jpl.nasa.gov/sbdb.cgi?sstr=3544935",
      "absolute_magnitude_h" : 21.7,
      "estimated_diameter" : {
        "kilometers" : {
          "estimated_diameter_min" : 0.1214940408,
          "estimated_diameter_max" : 0.2716689341
        },
        "meters" : {
          "estimated_diameter_min" : 121.4940407996,
          "estimated_diameter_max" : 271.6689340891
        },
        "miles" : {
          "estimated_diameter_min" : 0.0754928736,
          "estimated_diameter_max" : 0.1688071972
        },
        "feet" : {
          "estimated_diameter_min" : 398.6025088171,
          "estimated_diameter_max" : 891.3023057169
        }
      },
      "is_potentially_hazardous_asteroid" : true,
      "close_approach_data" : [ {
        "close_approach_date" : "2010-08-08",
        "epoch_date_close_approach" : 1281250800000,
        "relative_velocity" : {
          "kilometers_per_second" : "7.3711655135",
          "kilometers_per_hour" : "26536.1958486325",
          "miles_per_hour" : "16488.5601371683"
        },
        "miss_distance" : {
          "astronomical" : "0.1596789431",
          "lunar" : "62.1151046753",
          "kilometers" : "23887630",
          "miles" : "14843085"
        },
        "orbiting_body" : "Earth"
      } ],
      "orbital_data" : {
        "orbit_id" : "14",
        "orbit_determination_date" : "2017-04-06 08:56:59",
        "orbit_uncertainty" : "2",
        "minimum_orbit_intersection" : ".0218662",
        "jupiter_tisserand_invariant" : "6.638",
        "epoch_osculation" : "2458000.5",
        "eccentricity" : ".2117752909539491",
        "semi_major_axis" : ".8887486463636526",
        "inclination" : "14.23513588971577",
        "ascending_node_longitude" : "324.4683825158796",
        "orbital_period" : "306.032010397551",
        "perihelion_distance" : ".7005336431950616",
        "perihelion_argument" : "130.9822703288666",
        "aphelion_distance" : "1.076963649532243",
        "perihelion_time" : "2457978.002257333992",
        "mean_anomaly" : "26.46516405013255",
        "mean_motion" : "1.176347531528946",
        "equinox" : "J2000"
      }
    } ]
  }
}